{
  "type": "FeatureCollection",
  "crs": {
    "type": "name",
    "properties": {
      "name": "EPSG:4326"
    }
  },
  "features": [
    {
      "type": "Feature",
      "geometry": {
        "type": "Polygon",
        "coordinates": [
          [
            [
              -85.1682176061892,
              30.648227554756
            ],
            [
              -85.1682356459482,
              30.6445818492793
            ],
            [
              -85.1778278308207,
              30.6446901687404
            ],
            [
              -85.1778270780777,
              30.644740188233
            ],
            [
              -85.1778270350824,
              30.6447934824409
            ],
            [
              -85.1778145126724,
              30.6448341159722
            ],
            [
              -85.1778061009122,
              30.6448614131053
            ],
            [
              -85.1777205348392,
              30.6449163163003
            ],
            [
              -85.1776491214345,
              30.6450167693353
            ],
            [
              -85.1776280436073,
              30.645069371735
            ],
            [
              -85.1775998824592,
              30.6451312739789
            ],
            [
              -85.1775645957531,
              30.6451963010178
            ],
            [
              -85.1774972348431,
              30.6452738440544
            ],
            [
              -85.1773976719688,
              30.6453453779128
            ],
            [
              -85.1773232285525,
              30.6454322216055
            ],
            [
              -85.1772484452853,
              30.6454696603939
            ],
            [
              -85.1771451607558,
              30.6455195964454
            ],
            [
              -85.1770811398123,
              30.6455631552154
            ],
            [
              -85.1770314543561,
              30.6456128172152
            ],
            [
              -85.1769639651926,
              30.6456718339856
            ],
            [
              -85.1769141293622,
              30.6456998805955
            ],
            [
              -85.1769035161128,
              30.6457153740693
            ],
            [
              -85.1767932753613,
              30.645793137533
            ],
            [
              -85.1767043042412,
              30.6458460881369
            ],
            [
              -85.1766294783024,
              30.645877351563
            ],
            [
              -85.1765976805388,
              30.6459300078764
            ],
            [
              -85.1765736851078,
              30.6460783501379
            ],
            [
              -85.1765205936804,
              30.6461527317029
            ],
            [
              -85.1764997269233,
              30.646236211932
            ],
            [
              -85.1764575253875,
              30.6463352414513
            ],
            [
              -85.1764331275999,
              30.6464249153415
            ],
            [
              -85.1764016246765,
              30.6465208015069
            ],
            [
              -85.1763521492127,
              30.6466013403733
            ],
            [
              -85.1763189194675,
              30.6466749698332
            ],
            [
              -85.1747105081781,
              30.6466721873313
            ],
            [
              -85.1707083259897,
              30.6485901894243
            ],
            [
              -85.1682328576195,
              30.6501497051781
            ],
            [
              -85.1662415727651,
              30.6510140867916
            ],
            [
              -85.1652742352932,
              30.6518127645284
            ],
            [
              -85.1640248064,
              30.6518038568709
            ],
            [
              -85.1640732432214,
              30.6481615224367
            ],
            [
              -85.1682176061892,
              30.648227554756
            ]
          ]
        ]
      },
      "properties": {
        "PARCEL_ID": "193N09000000200000",
        "OWN_NAME": "SLOAN KATHY & DAVID M",
        "ASMNT_YR": 2025
      }
    },
    {
      "type": "Feature",
      "geometry": {
        "type": "Polygon",
        "coordinates": [
          [
            [
              -85.1682328576195,
              30.6501497051781
            ],
            [
              -85.1707083259897,
              30.6485901894243
            ],
            [
              -85.1747105081781,
              30.6466721873313
            ],
            [
              -85.1763189194675,
              30.6466749698332
            ],
            [
              -85.1763014331031,
              30.6467137145648
            ],
            [
              -85.1763018129459,
              30.646769055718
            ],
            [
              -85.1763058360382,
              30.6468366762221
            ],
            [
              -85.176313329752,
              30.6468919813407
            ],
            [
              -85.1763278781993,
              30.6469380256579
            ],
            [
              -85.1763461536448,
              30.6470086480673
            ],
            [
              -85.1763570588595,
              30.6470424130361
            ],
            [
              -85.1763751025411,
              30.647079215942
            ],
            [
              -85.1764360299029,
              30.6471434703724
            ],
            [
              -85.1764647041562,
              30.6471740698152
            ],
            [
              -85.1765218423055,
              30.6472045222827
            ],
            [
              -85.1765432750112,
              30.6472167110127
            ],
            [
              -85.1765507699094,
              30.6472720152247
            ],
            [
              -85.176536897515,
              30.6473243554234
            ],
            [
              -85.1765335289781,
              30.6473520435997
            ],
            [
              -85.1765444138695,
              30.6473827336465
            ],
            [
              -85.1765552354543,
              30.6474042016652
            ],
            [
              -85.176612098948,
              30.6473946847736
            ],
            [
              -85.1766514059487,
              30.6474190806988
            ],
            [
              -85.176680122206,
              30.6474558281264
            ],
            [
              -85.1766946494326,
              30.6474987984189
            ],
            [
              -85.17669153431,
              30.6475633819274
            ],
            [
              -85.1767060830127,
              30.647609426229
            ],
            [
              -85.1767275995823,
              30.6476339127824
            ],
            [
              -85.1767563792742,
              30.6476798840327
            ],
            [
              -85.1767779602659,
              30.6477135944035
            ],
            [
              -85.1768313287495,
              30.6477133206509
            ],
            [
              -85.1769131827205,
              30.6477159747383
            ],
            [
              -85.1769560054845,
              30.6477342022704
            ],
            [
              -85.1769810796168,
              30.647758670297
            ],
            [
              -85.177006386818,
              30.647816958734
            ],
            [
              -85.177013671469,
              30.6478415183317
            ],
            [
              -85.1770245350829,
              30.6478691343455
            ],
            [
              -85.177053125892,
              30.647887434936
            ],
            [
              -85.177081652288,
              30.6478965116961
            ],
            [
              -85.1771386019146,
              30.6478992942262
            ],
            [
              -85.1771672336234,
              30.6479237446289
            ],
            [
              -85.1771926053784,
              30.6479912550631
            ],
            [
              -85.1772175324169,
              30.6479942013682
            ],
            [
              -85.1772854919752,
              30.6480461215353
            ],
            [
              -85.1773211344675,
              30.648055162143
            ],
            [
              -85.1773747782041,
              30.6480948566324
            ],
            [
              -85.1774673428993,
              30.6481598746913
            ],
            [
              -85.1774986098611,
              30.6481704969707
            ],
            [
              -85.177542354684,
              30.6481810542555
            ],
            [
              -85.1775985407138,
              30.6481861573238
            ],
            [
              -85.1776548378247,
              30.6482074324986
            ],
            [
              -85.1777050815213,
              30.6482556942992
            ],
            [
              -85.1777615264879,
              30.648298534378
            ],
            [
              -85.1778115103343,
              30.6483090599786
            ],
            [
              -85.1778802854348,
              30.6483302709552
            ],
            [
              -85.1779677386099,
              30.6483459951681
            ],
            [
              -85.1779927310752,
              30.6483512579304
            ],
            [
              -85.1780740942214,
              30.6483885768262
            ],
            [
              -85.1781241526037,
              30.6484098852377
            ],
            [
              -85.1781429061408,
              30.6484151795923
            ],
            [
              -85.1782614419414,
              30.648414570701
            ],
            [
              -85.178355135228,
              30.6484302621435
            ],
            [
              -85.1784549919544,
              30.6484351389809
            ],
            [
              -85.1785361696324,
              30.6484455043675
            ],
            [
              -85.1785924303398,
              30.6484613881633
            ],
            [
              -85.178717724625,
              30.6485362196011
            ],
            [
              -85.1787677821516,
              30.6485575268968
            ],
            [
              -85.1788425372899,
              30.6485409686872
            ],
            [
              -85.1789551681091,
              30.6485889090683
            ],
            [
              -85.1790551373647,
              30.6486099594128
            ],
            [
              -85.1791113236935,
              30.6486150618879
            ],
            [
              -85.1792051275593,
              30.6486469258177
            ],
            [
              -85.179261425235,
              30.6486682003667
            ],
            [
              -85.179355378348,
              30.6487216282395
            ],
            [
              -85.1794117496326,
              30.6487536847595
            ],
            [
              -85.179430540065,
              30.648764369961
            ],
            [
              -85.1795241592469,
              30.6487692795214
            ],
            [
              -85.1795678309617,
              30.6487690541616
            ],
            [
              -85.179673927033,
              30.6487738984667
            ],
            [
              -85.1797488671601,
              30.6487842948442
            ],
            [
              -85.1797926502915,
              30.6488002424508
            ],
            [
              -85.1798616111108,
              30.6488484075466
            ],
            [
              -85.1799553418124,
              30.6488694889596
            ],
            [
              -85.1799991239756,
              30.6488854374137
            ],
            [
              -85.1800804514401,
              30.6489173650679
            ],
            [
              -85.1801493378071,
              30.6489547480071
            ],
            [
              -85.1802119873267,
              30.6489921626068
            ],
            [
              -85.1802495684502,
              30.6490135337018
            ],
            [
              -85.1803307467341,
              30.649023897172
            ],
            [
              -85.180380767994,
              30.6490398128949
            ],
            [
              -85.1804372901853,
              30.6490934339555
            ],
            [
              -85.180481221877,
              30.6491309445079
            ],
            [
              -85.1805191018872,
              30.6491954436272
            ],
            [
              -85.1805696072467,
              30.6492814424536
            ],
            [
              -85.1806076725603,
              30.6493728966313
            ],
            [
              -85.1806212669627,
              30.649534560889
            ],
            [
              -85.180640617456,
              30.6496261120414
            ],
            [
              -85.1806661680674,
              30.649712238665
            ],
            [
              -85.1807105094855,
              30.6498090521333
            ],
            [
              -85.1807360601974,
              30.649895178756
            ],
            [
              -85.1807305662507,
              30.6500030307987
            ],
            [
              -85.1807626539145,
              30.6501322538276
            ],
            [
              -85.1807818172978,
              30.6501968490262
            ],
            [
              -85.1807888751737,
              30.6503154187652
            ],
            [
              -85.1807894708784,
              30.6504016750429
            ],
            [
              -85.1808223307798,
              30.6504530004899
            ],
            [
              -85.1807882869897,
              30.6519223845787
            ],
            [
              -85.1652742352932,
              30.6518127645284
            ],
            [
              -85.1662415727651,
              30.6510140867916
            ],
            [
              -85.1682328576195,
              30.6501497051781
            ]
          ]
        ]
      },
      "properties": {
        "PARCEL_ID": "193N09000000200010",
        "OWN_NAME": "BAXTER DOROTHY A TRUST ESTATE",
        "ASMNT_YR": 2025
      }
    }
  ]
}
